[{"OBJECT_NAME":"COSMOS 2504","OBJECT_ID":"2015-020D","EPOCH":"2026-03-09T23:13:36.834816","MEAN_MOTION":13.6133253,"ECCENTRICITY":0.06077174,"INCLINATION":82.5183,"RA_OF_ASC_NODE":307.9923,"ARG_OF_PERICENTER":183.8961,"MEAN_ANOMALY":175.7346,"EPHEMERIS_TYPE":0,"CLASSIFICATION_TYPE":"U","NORAD_CAT_ID":40555,"ELEMENT_SET_NO":999,"REV_AT_EPOCH":53669,"BSTAR":0.00011649917,"MEAN_MOTION_DOT":3.31e-6,"MEAN_MOTION_DDOT":0},{"OBJECT_NAME":"ONEWEB-0227","OBJECT_ID":"2021-045AB","EPOCH":"2026-03-09T15:36:06.167232","MEAN_MOTION":13.15548176,"ECCENTRICITY":0.0001678,"INCLINATION":87.894,"RA_OF_ASC_NODE":279.0589,"ARG_OF_PERICENTER":91.595,"MEAN_ANOMALY":268.5373,"EPHEMERIS_TYPE":0,"CLASSIFICATION_TYPE":"U","NORAD_CAT_ID":48792,"ELEMENT_SET_NO":999,"REV_AT_EPOCH":23129,"BSTAR":0.00052032,"MEAN_MOTION_DOT":2.09e-6,"MEAN_MOTION_DDOT":0}]
